OBJECT_NAME,OBJECT_ID,EPOCH,MEAN_MOTION,ECCENTRICITY,INCLINATION,RA_OF_ASC_NODE,ARG_OF_PERICENTER,MEAN_ANOMALY,EPHEMERIS_TYPE,CLASSIFICATION_TYPE,NORAD_CAT_ID,ELEMENT_SET_NO,REV_AT_EPOCH,BSTAR,MEAN_MOTION_DOT,MEAN_MOTION_DDOT
STARLINK-33834,2025-076T,2026-07-12T17:34:03.802944,15.27589299,.0001868,43.0006,335.5489,284.9527,75.1118,0,U,63586,999,7095,.36157E-3,.9703E-4,0
STARLINK-33830,2025-076U,2026-07-12T11:13:45.394464,15.27581396,.00012,42.9993,337.0011,231.9068,128.1676,0,U,63587,999,7091,.52578701E-3,.14235E-3,0
STARLINK-33651,2025-076V,2026-07-12T11:15:35.259840,15.27582634,.00016239,42.9997,337.0143,267.7748,92.2917,0,U,63588,999,7091,.42615182E-3,.11484E-3,0
STARLINK-33788,2025-076W,2026-07-12T16:22:06.585024,15.27596704,.0001858,43.0017,336.0402,277.1612,82.9028,0,U,63589,999,7094,.35541E-3,.9536E-4,0
STARLINK-33805,2025-076X,2026-07-12T18:11:03.868224,15.27584683,.0001357,43.0000,335.7294,248.6337,111.4370,0,U,63590,999,7095,.34296E-3,.9189E-4,0
STARLINK-33702,2025-076Y,2026-07-12T10:47:49.804800,15.27590155,.0002123,43.0049,336.8714,280.4945,79.5668,0,U,63591,999,7091,.35867035E-3,.9624E-4,0
STARLINK-33666,2025-076Z,2026-07-12T11:32:14.247744,15.27591807,.00013802,42.9976,337.1000,218.6920,141.3833,0,U,63592,999,7091,.53243211E-3,.14423E-3,0
STARLINK-33723,2025-076AA,2026-07-12T09:22:55.532064,15.27591082,.00013579,43.0034,337.2871,266.1572,93.9124,0,U,63593,999,7090,.40991603E-3,.11039E-3,0
STARLINK-33791,2025-076AB,2026-07-12T10:01:47.083584,15.27586681,.00009112,42.9995,337.4909,202.7220,157.3591,0,U,63594,999,7090,.34090188E-3,.9132E-4,0
STARLINK-33831,2025-076AC,2026-07-12T20:27:32.004000,15.27613884,.0002723,43.0014,334.6691,246.7284,113.3281,0,U,63595,999,7097,.70465E-3,.192E-3,0
SHIYAN-27 OBJECT A,2025-078A,2026-07-13T04:39:09.625824,13.57252912,.0000992,99.6901,201.0315,83.2327,276.8924,0,U,63599,999,6106,.68371E-4,.5E-7,0
SHIYAN-27 OBJECT B,2025-078B,2026-07-13T03:46:23.661984,13.57249618,.0000919,99.6915,200.9733,93.7214,266.4029,0,U,63600,999,6105,.51801E-4,-.7E-7,0
SHIYAN-27 OBJECT C,2025-078C,2026-07-13T04:21:44.241984,13.57248483,.0001173,99.6908,201.0874,85.9497,274.1776,0,U,63601,999,6106,.60522E-4,-.1E-7,0
SHIYAN-27 OBJECT D,2025-078D,2026-07-13T04:04:03.306144,13.57251421,.0001025,99.6938,201.0286,83.5637,276.5618,0,U,63602,999,6105,.49362E-4,-.9E-7,0
SHIYAN-27 OBJECT E,2025-078E,2026-07-13T03:28:42.623328,13.57244487,.0000994,99.6897,200.9041,84.5078,275.6174,0,U,63603,999,6105,.66981E-4,.4E-7,0
SHIYAN-27 OBJECT F,2025-078F,2026-07-13T04:57:15.843168,13.57243948,.0001101,99.6904,201.0299,81.7847,278.3416,0,U,63604,999,6106,.2967E-4,-.23E-6,0
KORSAT-3,2025-081A,2026-07-13T04:46:51.595392,14.99059934,.0010172,45.4097,201.0069,340.6288,19.4202,0,U,63630,999,6708,.94591E-4,.935E-5,0
TOMORROW-S7,2025-081B,2026-07-13T03:59:51.940032,14.99689506,.000159,45.3916,200.9270,3.8801,356.2089,0,U,63631,999,6707,.67948E-4,.621E-5,0
STARLINK-33879,2025-083A,2026-07-12T21:50:16.415808,15.27586784,.0002503,43.0063,18.3824,280.9132,79.1439,0,U,63634,999,6921,.54525E-3,.14775E-3,0
STARLINK-33854,2025-083B,2026-07-12T20:49:13.340064,15.27586017,.0001877,43.0011,18.0594,257.6498,102.4144,0,U,63635,999,6921,.70459E-3,.19181E-3,0
STARLINK-33864,2025-083C,2026-07-12T20:21:42.172992,15.27581529,.0001738,43.0024,18.7777,280.7802,79.2854,0,U,63636,999,6923,.60229E-3,.16349E-3,0
STARLINK-33832,2025-083D,2026-07-12T20:38:07.451808,15.27585039,.0001606,43.0013,18.0047,269.4012,90.6655,0,U,63637,999,6921,.57789E-3,.15676E-3,0
STARLINK-33856,2025-083E,2026-07-11T21:20:37.284288,15.27567365,.000341,43.0015,23.6189,40.7752,319.3355,0,U,63638,999,6906,.4294E-3,.11569E-3,0
STARLINK-33876,2025-083F,2026-07-12T21:15:07.644096,15.27595435,.0001233,43.0038,18.1862,253.2261,106.8455,0,U,63639,999,6921,.58245E-3,.15808E-3,0
STARLINK-33859,2025-083G,2026-07-12T21:53:58.946784,15.27599999,.0002111,43.0023,18.4044,261.3960,98.6652,0,U,63640,999,6921,.58396E-3,.15852E-3,0
STARLINK-33826,2025-083H,2026-07-12T20:56:37.309920,15.27591880,.0001503,43.0001,18.0990,251.6440,108.4248,0,U,63641,999,6921,.52697E-3,.14272E-3,0
STARLINK-33836,2025-083J,2026-07-12T21:41:01.764096,15.27607076,.0002297,43.0058,18.3381,282.3706,77.6889,0,U,63642,999,6921,.47986E-3,.12977E-3,0
STARLINK-33558,2025-083K,2026-07-12T20:43:39.384192,15.27602179,.0001594,43.0077,18.0240,285.0484,75.0191,0,U,63643,999,6921,.42721E-3,.1152E-3,0
STARLINK-33852,2025-083L,2026-07-12T21:39:10.816128,15.27595849,.0001624,43.0041,18.3254,272.0505,88.0161,0,U,63644,999,6924,.6212E-3,.16879E-3,0
STARLINK-33835,2025-083M,2026-07-12T15:04:03.411264,15.27587458,.0001491,43.0032,19.6970,277.7539,82.3143,0,U,63645,999,6920,.72049E-3,.19621E-3,0
STARLINK-33661,2025-083N,2026-07-12T22:34:28.621056,15.27592696,.0001363,43.0010,17.7423,265.0282,95.0414,0,U,63646,999,6925,.481E-3,.13002E-3,0
STARLINK-33729,2025-083P,2026-07-12T21:48:28.968768,15.27597855,.0006047,42.9861,18.3900,42.8276,317.3046,0,U,63647,999,6921,.4233E-3,.11414E-3,0
STARLINK-33717,2025-083Q,2026-07-12T22:21:31.471200,15.27595522,.0001621,42.9994,17.6771,270.6118,89.4548,0,U,63648,999,6922,.52678E-3,.14269E-3,0
STARLINK-33684,2025-083R,2026-07-12T22:10:25.343616,15.27598520,.0001934,43.0011,17.6204,275.7932,84.2699,0,U,63649,999,6922,.694E-3,.18895E-3,0
STARLINK-33704,2025-083S,2026-07-12T21:07:42.367008,15.27604903,.0001367,43.0018,18.1536,258.8442,101.2256,0,U,63650,999,6921,.42425E-3,.11439E-3,0
STARLINK-33705,2025-083T,2026-07-12T21:02:10.940064,15.27619100,.0001717,43.0018,18.1180,259.7013,100.3645,0,U,63651,999,6924,.76785E-3,.20953E-3,0
STARLINK-33663,2025-083U,2026-07-12T22:25:13.296288,15.27588341,.0002184,43.0027,17.6852,246.2285,113.8338,0,U,63652,999,6922,.42003E-3,.11317E-3,0
STARLINK-33866,2025-083V,2026-07-12T21:35:27.270816,15.27590115,.0002407,43.0061,18.3010,278.4339,81.6240,0,U,63653,999,6924,-.65394E-4,-.2062E-4,0
STARLINK-33849,2025-083W,2026-07-12T21:31:46.727904,15.27591830,.0001426,43.0025,18.2778,257.5212,102.5480,0,U,63654,999,6921,.36516E-3,.9803E-4,0
STARLINK-33873,2025-083X,2026-07-12T21:33:37.994688,15.27597524,.0001067,43.0023,18.2897,266.2202,93.8527,0,U,63655,999,6924,.51251E-3,.13875E-3,0
STARLINK-33772,2025-083Y,2026-07-12T21:09:35.302176,15.27570735,.0001407,43.0009,18.1610,271.8193,88.2498,0,U,63656,999,6924,.39206E-3,.10539E-3,0
STARLINK-33789,2025-083Z,2026-07-12T20:58:29.819136,15.27627280,.000163,43.0018,18.1086,354.5404,5.5430,0,U,63657,999,6924,.73088E-3,.19933E-3,0
STARLINK-33822,2025-083AA,2026-07-12T21:29:56.077152,15.27586315,.0001536,43.0007,18.2702,273.1296,86.9380,0,U,63658,999,6924,.29989E-3,.8001E-4,0
STARLINK-33771,2025-083AB,2026-07-12T22:31:56.895744,15.27594761,.0001501,42.9994,21.2646,265.6898,94.3782,0,U,63659,999,6921,.44351E-3,.11968E-3,0
STARLINK-33810,2025-083AC,2026-07-12T22:19:39.110592,15.27645025,.0001012,42.9995,17.6615,265.1104,94.9632,0,U,63660,999,6925,.10783E-2,.29588E-3,0
STARLINK-33823,2025-083AD,2026-07-12T21:24:22.783104,15.27588457,.0001542,43.0043,18.2389,238.0486,122.0216,0,U,63661,999,6924,.40301E-3,.10847E-3,0
TIANLIAN 2-05,2025-084A,2026-07-13T00:22:38.454240,1.00270384,.0002586,4.3879,279.5389,153.5079,243.8756,0,U,63662,999,464,0,.128E-5,0
STARLINK-11651 [DTC],2025-085A,2026-07-12T10:13:43.719744,15.70855079,.00022392,43.0014,246.1931,292.1378,67.9252,0,U,63664,999,6987,.88896113E-3,.11529E-2,0
STARLINK-11672 [DTC],2025-085B,2026-07-12T13:09:12.473856,15.70851389,.0001746,42.9993,245.3862,328.7156,31.3607,0,U,63665,999,7049,.85774E-3,.111148E-2,0
STARLINK-11666 [DTC],2025-085D,2026-07-12T13:01:44.469984,15.70851549,.00013634,42.9986,246.2318,238.1258,121.9477,0,U,63667,999,6978,.79077056E-3,.102325E-2,0
STARLINK-11663 [DTC],2025-085E,2026-07-13T04:09:40.488192,15.70992826,.0002375,42.9941,242.3516,163.8815,196.2128,0,U,63668,999,6998,.10558E-2,.1382E-2,0
STARLINK-11595 [DTC],2025-085F,2026-07-12T03:37:05.564640,15.70920383,.00015067,42.9992,248.4458,232.1206,127.9525,0,U,63669,999,7046,.10881263E-2,.142063E-2,0
STARLINK-11599 [DTC],2025-085G,2026-07-13T03:54:23.283936,15.70949997,.0002436,42.9913,242.2659,146.7105,213.3916,0,U,63670,999,6997,.80606E-3,.104785E-2,0
STARLINK-11603 [DTC],2025-085H,2026-07-13T02:15:11.208672,15.70879601,.0002071,43.0005,242.6141,278.3974,81.6659,0,U,63671,999,6996,.94204E-3,.122432E-2,0
STARLINK-11644 [DTC],2025-085J,2026-07-13T03:39:05.948352,15.70967270,.0001056,42.9978,242.1860,257.9485,102.1265,0,U,63672,999,6997,.13267E-2,.17433E-2,0
STARLINK-11634 [DTC],2025-085K,2026-07-12T04:38:04.182144,15.70933957,.00014348,43.0000,247.8927,250.7060,109.3653,0,U,63673,999,6982,.97672156E-3,.127317E-2,0
STARLINK-11656 [DTC],2025-085L,2026-07-12T12:08:13.725024,15.70998086,.00014942,42.9986,245.9317,304.5211,55.5515,0,U,63674,999,6987,.12326163E-2,.161903E-2,0
STARLINK-11655 [DTC],2025-085M,2026-07-12T12:00:35.013600,15.70953306,.00011559,42.9991,245.8898,298.9585,61.1167,0,U,63675,999,6987,.12378602E-2,.162295E-2,0
STARLINK-11661 [DTC],2025-085N,2026-07-12T14:56:03.339168,15.71028765,.0002292,43.0002,245.0793,297.9551,62.1085,0,U,63676,999,7054,.12877E-2,.16954E-2,0
STARLINK-33816,2025-085P,2026-07-13T00:07:53.826240,15.27596201,.0001359,42.9994,43.3467,19.1532,340.9370,0,U,63677,999,6813,.51642E-3,.13983E-3,0
STARLINK-33861,2025-085Q,2026-07-12T22:41:08.414592,15.27575169,.0001731,43.0025,43.7566,256.2818,103.7841,0,U,63678,999,6801,.42017E-3,.11316E-3,0
STARLINK-33850,2025-085R,2026-07-12T23:47:31.998048,15.27588795,.0002016,43.0027,43.2343,256.2407,103.8220,0,U,63679,999,6802,.47323E-3,.12786E-3,0
STARLINK-33887,2025-085S,2026-07-12T23:03:07.591392,15.27590742,.0000836,43.0027,43.0057,294.6098,65.4667,0,U,63680,999,6809,.46857E-3,.12658E-3,0
STARLINK-33886,2025-085T,2026-07-12T15:06:47.642112,15.27595181,.0000354,42.9996,44.8228,7.5972,352.4885,0,U,63681,999,6798,.38765E-3,.10425E-3,0
STARLINK-33840,2025-085U,2026-07-13T00:09:45.216576,15.27580408,.0001735,42.9976,43.3568,32.6604,327.4354,0,U,63682,999,6803,.16328E-3,.4234E-4,0
